[{"OBJECT_NAME":"STARLINK-33891","OBJECT_ID":"2025-092Z","EPOCH":"2026-03-09T07:41:05.495136","MEAN_MOTION":15.27590697,"ECCENTRICITY":0.00029114,"INCLINATION":42.9989,"RA_OF_ASC_NODE":175.0118,"ARG_OF_PERICENTER":294.0448,"MEAN_ANOMALY":66.0099,"EPHEMERIS_TYPE":0,"CLASSIFICATION_TYPE":"U","NORAD_CAT_ID":63827,"ELEMENT_SET_NO":999,"REV_AT_EPOCH":4849,"BSTAR":0.0013112766,"MEAN_MOTION_DOT":0.00036012,"MEAN_MOTION_DDOT":0},{"OBJECT_NAME":"FALCON 9 R\/B","OBJECT_ID":"2024-143C","EPOCH":"2026-03-09T13:25:58.397952","MEAN_MOTION":6.06028808,"ECCENTRICITY":0.47129983,"INCLINATION":62.3836,"RA_OF_ASC_NODE":40.6116,"ARG_OF_PERICENTER":299.732,"MEAN_ANOMALY":21.639,"EPHEMERIS_TYPE":0,"CLASSIFICATION_TYPE":"U","NORAD_CAT_ID":60424,"ELEMENT_SET_NO":999,"REV_AT_EPOCH":3467,"BSTAR":0.0010615048,"MEAN_MOTION_DOT":4.218e-5,"MEAN_MOTION_DDOT":0}]
